LEMUR-2-ANDIS           
1 42838U 17042P   26068.55941107  .00023598  00000+0  79875-3 0  9998
2 42838  97.3659 249.7950 0009101   4.3248 355.8070 15.30557934473198
STARLINK-35538          
1 66475U 25262V   26068.03935600  .00032224  00000+0  11734-2 0  9993
2 66475  43.0024 300.1234 0001822 268.5994  91.4649 15.27634933 18805
