[{"OBJECT_NAME":"LEMUR-2-ANDIS","OBJECT_ID":"2017-042P","EPOCH":"2026-03-09T13:25:33.116448","MEAN_MOTION":15.30557934,"ECCENTRICITY":0.0009101,"INCLINATION":97.3659,"RA_OF_ASC_NODE":249.795,"ARG_OF_PERICENTER":4.3248,"MEAN_ANOMALY":355.807,"EPHEMERIS_TYPE":0,"CLASSIFICATION_TYPE":"U","NORAD_CAT_ID":42838,"ELEMENT_SET_NO":999,"REV_AT_EPOCH":47319,"BSTAR":0.00079875,"MEAN_MOTION_DOT":0.00023598,"MEAN_MOTION_DDOT":0},{"OBJECT_NAME":"STARLINK-35538","OBJECT_ID":"2025-262V","EPOCH":"2026-03-09T00:56:40.358400","MEAN_MOTION":15.27634933,"ECCENTRICITY":0.0001822,"INCLINATION":43.0024,"RA_OF_ASC_NODE":300.1234,"ARG_OF_PERICENTER":268.5994,"MEAN_ANOMALY":91.4649,"EPHEMERIS_TYPE":0,"CLASSIFICATION_TYPE":"U","NORAD_CAT_ID":66475,"ELEMENT_SET_NO":999,"REV_AT_EPOCH":1880,"BSTAR":0.0011734291,"MEAN_MOTION_DOT":0.00032224,"MEAN_MOTION_DDOT":0}]
